[{"OBJECT_NAME":"ONEWEB-0600","OBJECT_ID":"2022-166Y","EPOCH":"2026-01-17T09:45:24.136704","MEAN_MOTION":13.2182565,"ECCENTRICITY":0.00016411,"INCLINATION":87.9215,"RA_OF_ASC_NODE":274.0613,"ARG_OF_PERICENTER":70.6952,"MEAN_ANOMALY":289.436,"EPHEMERIS_TYPE":0,"CLASSIFICATION_TYPE":"U","NORAD_CAT_ID":54664,"ELEMENT_SET_NO":999,"REV_AT_EPOCH":15159,"BSTAR":0.00010059369,"MEAN_MOTION_DOT":5.5e-7,"MEAN_MOTION_DDOT":0},{"OBJECT_NAME":"ONEWEB-0601","OBJECT_ID":"2022-166Z","EPOCH":"2026-01-17T15:00:33.722784","MEAN_MOTION":13.2182559,"ECCENTRICITY":0.0001876,"INCLINATION":87.9217,"RA_OF_ASC_NODE":274.0354,"ARG_OF_PERICENTER":74.69,"MEAN_ANOMALY":285.4441,"EPHEMERIS_TYPE":0,"CLASSIFICATION_TYPE":"U","NORAD_CAT_ID":54665,"ELEMENT_SET_NO":999,"REV_AT_EPOCH":15181,"BSTAR":-8.045249e-5,"MEAN_MOTION_DOT":-2.0e-7,"MEAN_MOTION_DDOT":0},{"OBJECT_NAME":"ONEWEB-0602","OBJECT_ID":"2022-166AA","EPOCH":"2026-01-17T10:31:36.292800","MEAN_MOTION":13.21827083,"ECCENTRICITY":0.00016202,"INCLINATION":87.922,"RA_OF_ASC_NODE":274.0772,"ARG_OF_PERICENTER":65.0705,"MEAN_ANOMALY":295.0597,"EPHEMERIS_TYPE":0,"CLASSIFICATION_TYPE":"U","NORAD_CAT_ID":54666,"ELEMENT_SET_NO":999,"REV_AT_EPOCH":15163,"BSTAR":4.8000754e-5,"MEAN_MOTION_DOT":3.3e-7,"MEAN_MOTION_DDOT":0},{"OBJECT_NAME":"ONEWEB-0603","OBJECT_ID":"2022-166AB","EPOCH":"2026-01-17T10:39:53.403840","MEAN_MOTION":13.21827302,"ECCENTRICITY":0.0001712,"INCLINATION":87.9227,"RA_OF_ASC_NODE":274.0176,"ARG_OF_PERICENTER":74.0079,"MEAN_ANOMALY":286.1243,"EPHEMERIS_TYPE":0,"CLASSIFICATION_TYPE":"U","NORAD_CAT_ID":54667,"ELEMENT_SET_NO":999,"REV_AT_EPOCH":15156,"BSTAR":2.0670559e-5,"MEAN_MOTION_DOT":2.2e-7,"MEAN_MOTION_DDOT":0},{"OBJECT_NAME":"ONEWEB-0604","OBJECT_ID":"2022-166AC","EPOCH":"2026-01-17T10:23:18.578688","MEAN_MOTION":13.21827683,"ECCENTRICITY":0.00015441,"INCLINATION":87.922,"RA_OF_ASC_NODE":274.0369,"ARG_OF_PERICENTER":75.4806,"MEAN_ANOMALY":284.6499,"EPHEMERIS_TYPE":0,"CLASSIFICATION_TYPE":"U","NORAD_CAT_ID":54668,"ELEMENT_SET_NO":999,"REV_AT_EPOCH":15152,"BSTAR":0.0001523925,"MEAN_MOTION_DOT":7.6e-7,"MEAN_MOTION_DDOT":0},{"OBJECT_NAME":"ONEWEB-0605","OBJECT_ID":"2022-166AD","EPOCH":"2026-01-17T15:40:49.990368","MEAN_MOTION":13.21824361,"ECCENTRICITY":0.00021785,"INCLINATION":87.9219,"RA_OF_ASC_NODE":274.0203,"ARG_OF_PERICENTER":82.8737,"MEAN_ANOMALY":277.2645,"EPHEMERIS_TYPE":0,"CLASSIFICATION_TYPE":"U","NORAD_CAT_ID":54669,"ELEMENT_SET_NO":999,"REV_AT_EPOCH":15162,"BSTAR":0.00018267175,"MEAN_MOTION_DOT":8.8e-7,"MEAN_MOTION_DDOT":0},{"OBJECT_NAME":"ONEWEB-0606","OBJECT_ID":"2022-166AE","EPOCH":"2026-01-17T10:44:38.128128","MEAN_MOTION":13.2182589,"ECCENTRICITY":0.00014254,"INCLINATION":87.9217,"RA_OF_ASC_NODE":274.0731,"ARG_OF_PERICENTER":80.1347,"MEAN_ANOMALY":279.9948,"EPHEMERIS_TYPE":0,"CLASSIFICATION_TYPE":"U","NORAD_CAT_ID":54670,"ELEMENT_SET_NO":999,"REV_AT_EPOCH":15165,"BSTAR":0.00013785186,"MEAN_MOTION_DOT":7.0e-7,"MEAN_MOTION_DDOT":0},{"OBJECT_NAME":"ONEWEB-0607","OBJECT_ID":"2022-166AF","EPOCH":"2026-01-17T15:24:15.261120","MEAN_MOTION":13.21825608,"ECCENTRICITY":0.00017043,"INCLINATION":87.9215,"RA_OF_ASC_NODE":273.9979,"ARG_OF_PERICENTER":72.6618,"MEAN_ANOMALY":287.4702,"EPHEMERIS_TYPE":0,"CLASSIFICATION_TYPE":"U","NORAD_CAT_ID":54671,"ELEMENT_SET_NO":999,"REV_AT_EPOCH":15165,"BSTAR":3.2124061e-5,"MEAN_MOTION_DOT":2.6e-7,"MEAN_MOTION_DDOT":0},{"OBJECT_NAME":"ONEWEB-0608","OBJECT_ID":"2022-166AG","EPOCH":"2026-01-17T15:33:42.905664","MEAN_MOTION":13.21825982,"ECCENTRICITY":0.00021426,"INCLINATION":87.9224,"RA_OF_ASC_NODE":273.9869,"ARG_OF_PERICENTER":76.7801,"MEAN_ANOMALY":283.3572,"EPHEMERIS_TYPE":0,"CLASSIFICATION_TYPE":"U","NORAD_CAT_ID":54672,"ELEMENT_SET_NO":999,"REV_AT_EPOCH":15166,"BSTAR":-0.00047034731,"MEAN_MOTION_DOT":-1.81e-6,"MEAN_MOTION_DDOT":0},{"OBJECT_NAME":"ONEWEB-0610","OBJECT_ID":"2022-166AH","EPOCH":"2026-01-17T15:05:17.013696","MEAN_MOTION":13.21824002,"ECCENTRICITY":0.00021509,"INCLINATION":87.9214,"RA_OF_ASC_NODE":274.0205,"ARG_OF_PERICENTER":74.1856,"MEAN_ANOMALY":285.9515,"EPHEMERIS_TYPE":0,"CLASSIFICATION_TYPE":"U","NORAD_CAT_ID":54673,"ELEMENT_SET_NO":999,"REV_AT_EPOCH":15156,"BSTAR":-0.00010664787,"MEAN_MOTION_DOT":-3.1e-7,"MEAN_MOTION_DDOT":0},{"OBJECT_NAME":"ONEWEB-0611","OBJECT_ID":"2022-166AJ","EPOCH":"2026-01-17T11:17:48.635520","MEAN_MOTION":13.21826101,"ECCENTRICITY":0.00013604,"INCLINATION":87.9215,"RA_OF_ASC_NODE":274.0483,"ARG_OF_PERICENTER":74.7525,"MEAN_ANOMALY":285.3759,"EPHEMERIS_TYPE":0,"CLASSIFICATION_TYPE":"U","NORAD_CAT_ID":54674,"ELEMENT_SET_NO":999,"REV_AT_EPOCH":15153,"BSTAR":4.6385465e-5,"MEAN_MOTION_DOT":3.2e-7,"MEAN_MOTION_DDOT":0},{"OBJECT_NAME":"ONEWEB-0612","OBJECT_ID":"2022-166AK","EPOCH":"2026-01-17T09:47:46.155840","MEAN_MOTION":13.21825775,"ECCENTRICITY":0.00017236,"INCLINATION":87.9222,"RA_OF_ASC_NODE":274.0405,"ARG_OF_PERICENTER":74.2036,"MEAN_ANOMALY":285.9288,"EPHEMERIS_TYPE":0,"CLASSIFICATION_TYPE":"U","NORAD_CAT_ID":54675,"ELEMENT_SET_NO":999,"REV_AT_EPOCH":15151,"BSTAR":6.5736849e-5,"MEAN_MOTION_DOT":4.0e-7,"MEAN_MOTION_DDOT":0},{"OBJECT_NAME":"ONEWEB-0615","OBJECT_ID":"2022-166AL","EPOCH":"2026-01-17T11:08:19.857408","MEAN_MOTION":13.21825626,"ECCENTRICITY":0.00015999,"INCLINATION":87.9218,"RA_OF_ASC_NODE":274.0564,"ARG_OF_PERICENTER":75.0403,"MEAN_ANOMALY":285.0908,"EPHEMERIS_TYPE":0,"CLASSIFICATION_TYPE":"U","NORAD_CAT_ID":54676,"ELEMENT_SET_NO":999,"REV_AT_EPOCH":15153,"BSTAR":2.9299608e-5,"MEAN_MOTION_DOT":2.5e-7,"MEAN_MOTION_DDOT":0},{"OBJECT_NAME":"ONEWEB-0655","OBJECT_ID":"2022-166AM","EPOCH":"2026-01-17T10:32:47.609088","MEAN_MOTION":13.21825905,"ECCENTRICITY":0.00016923,"INCLINATION":87.9215,"RA_OF_ASC_NODE":274.0642,"ARG_OF_PERICENTER":67.0715,"MEAN_ANOMALY":293.0597,"EPHEMERIS_TYPE":0,"CLASSIFICATION_TYPE":"U","NORAD_CAT_ID":54677,"ELEMENT_SET_NO":999,"REV_AT_EPOCH":15152,"BSTAR":9.8683753e-5,"MEAN_MOTION_DOT":5.4e-7,"MEAN_MOTION_DDOT":0},{"OBJECT_NAME":"ONEWEB-0659","OBJECT_ID":"2022-166AN","EPOCH":"2026-01-17T14:34:29.303904","MEAN_MOTION":13.21825737,"ECCENTRICITY":0.00015245,"INCLINATION":87.9217,"RA_OF_ASC_NODE":274.0314,"ARG_OF_PERICENTER":78.5179,"MEAN_ANOMALY":281.6126,"EPHEMERIS_TYPE":0,"CLASSIFICATION_TYPE":"U","NORAD_CAT_ID":54678,"ELEMENT_SET_NO":999,"REV_AT_EPOCH":15163,"BSTAR":-3.293456e-6,"MEAN_MOTION_DOT":1.2e-7,"MEAN_MOTION_DDOT":0},{"OBJECT_NAME":"ONEWEB-0685","OBJECT_ID":"2022-166AP","EPOCH":"2026-01-17T14:34:46.578720","MEAN_MOTION":13.2183804,"ECCENTRICITY":0.00018905,"INCLINATION":87.9216,"RA_OF_ASC_NODE":274.0273,"ARG_OF_PERICENTER":79.2456,"MEAN_ANOMALY":280.8891,"EPHEMERIS_TYPE":0,"CLASSIFICATION_TYPE":"U","NORAD_CAT_ID":54679,"ELEMENT_SET_NO":999,"REV_AT_EPOCH":15152,"BSTAR":2.874073e-5,"MEAN_MOTION_DOT":2.5e-7,"MEAN_MOTION_DDOT":0},{"OBJECT_NAME":"ONEWEB-0712","OBJECT_ID":"2022-166AQ","EPOCH":"2026-01-17T08:35:33.752256","MEAN_MOTION":13.16598734,"ECCENTRICITY":0.00014583,"INCLINATION":87.9029,"RA_OF_ASC_NODE":258.8021,"ARG_OF_PERICENTER":54.9695,"MEAN_ANOMALY":305.1573,"EPHEMERIS_TYPE":0,"CLASSIFICATION_TYPE":"U","NORAD_CAT_ID":54680,"ELEMENT_SET_NO":999,"REV_AT_EPOCH":15221,"BSTAR":-0.0026004989,"MEAN_MOTION_DOT":-9.81e-6,"MEAN_MOTION_DDOT":0}]
