ONEWEB-0600             
1 54664U 22166Y   26017.40652936  .00000055  00000+0  10059-3 0  9990
2 54664  87.9215 274.0613 0001641  70.6952 289.4360 13.21825650151599
ONEWEB-0601             
1 54665U 22166Z   26017.62539031 -.00000020  00000+0 -80452-4 0  9994
2 54665  87.9217 274.0354 0001876  74.6900 285.4441 13.21825590151815
ONEWEB-0602             
1 54666U 22166AA  26017.43861450  .00000033  00000+0  48001-4 0  9993
2 54666  87.9220 274.0772 0001620  65.0705 295.0597 13.21827083151636
ONEWEB-0603             
1 54667U 22166AB  26017.44436810  .00000022  00000+0  20671-4 0  9994
2 54667  87.9227 274.0176 0001712  74.0079 286.1243 13.21827302151563
ONEWEB-0604             
1 54668U 22166AC  26017.43285392  .00000076  00000+0  15239-3 0  9993
2 54668  87.9220 274.0369 0001544  75.4806 284.6499 13.21827683151521
ONEWEB-0605             
1 54669U 22166AD  26017.65335637  .00000088  00000+0  18267-3 0  9993
2 54669  87.9219 274.0203 0002178  82.8737 277.2645 13.21824361151628
ONEWEB-0606             
1 54670U 22166AE  26017.44766352  .00000070  00000+0  13785-3 0  9995
2 54670  87.9217 274.0731 0001425  80.1347 279.9948 13.21825890151652
ONEWEB-0607             
1 54671U 22166AF  26017.64184330  .00000026  00000+0  32124-4 0  9998
2 54671  87.9215 273.9979 0001704  72.6618 287.4702 13.21825608151659
ONEWEB-0608             
1 54672U 22166AG  26017.64841326 -.00000181  00000+0 -47035-3 0  9994
2 54672  87.9224 273.9869 0002142  76.7801 283.3572 13.21825982151660
ONEWEB-0610             
1 54673U 22166AH  26017.62866914 -.00000031  00000+0 -10665-3 0  9996
2 54673  87.9214 274.0205 0002150  74.1856 285.9515 13.21824002151563
ONEWEB-0611             
1 54674U 22166AJ  26017.47070180  .00000032  00000+0  46385-4 0  9990
2 54674  87.9215 274.0483 0001360  74.7525 285.3759 13.21826101151537
ONEWEB-0612             
1 54675U 22166AK  26017.40817310  .00000040  00000+0  65737-4 0  9999
2 54675  87.9222 274.0405 0001723  74.2036 285.9288 13.21825775151512
ONEWEB-0615             
1 54676U 22166AL  26017.46411872  .00000025  00000+0  29300-4 0  9998
2 54676  87.9218 274.0564 0001599  75.0403 285.0908 13.21825626151539
ONEWEB-0655             
1 54677U 22166AM  26017.43943992  .00000054  00000+0  98684-4 0  9992
2 54677  87.9215 274.0642 0001692  67.0715 293.0597 13.21825905151527
ONEWEB-0659             
1 54678U 22166AN  26017.60728361  .00000012  00000+0 -32935-5 0  9996
2 54678  87.9217 274.0314 0001524  78.5179 281.6126 13.21825737151637
ONEWEB-0685             
1 54679U 22166AP  26017.60748355  .00000025  00000+0  28741-4 0  9994
2 54679  87.9216 274.0273 0001890  79.2456 280.8891 13.21838040151522
ONEWEB-0712             
1 54680U 22166AQ  26017.35802954 -.00000981  00000+0 -26005-2 0  9996
2 54680  87.9029 258.8021 0001458  54.9695 305.1573 13.16598734152214
